SL-16 R/B               
1 22566U 93016B   26034.14804864  .00000093  00000+0  72172-4 0  9994
2 22566  71.0082 287.7327 0009936   2.7071 357.4104 14.15303514697284
COSMOS 2242             
1 22626U 93024A   26034.46773323  .00002651  00000+0  23104-3 0  9992
2 22626  82.5202 299.4460 0017940  62.6729 297.6317 14.96398868775271
SL-16 R/B               
1 22803U 93059B   26034.45669681  .00000254  00000+0  14935-3 0  9996
2 22803  70.9894  83.3207 0019488 263.1972  96.6934 14.17224664674682
ARIANE 40 R/B           
1 22830U 93061H   26034.20210427  .00000256  00000+0  10951-3 0  9998
2 22830  98.4989 103.7578 0011142  32.0777 328.1083 14.32841906689163
COSMOS 2278             
1 23087U 94023A   26034.50868714 -.00000234  00000+0 -97424-4 0  9992
2 23087  71.0508 246.6108 0006399  77.8627 282.3212 14.14365016639979
SL-16 R/B               
1 23088U 94023B   26034.49997705 -.00000180  00000+0 -68503-4 0  9990
2 23088  71.0000 142.6902 0004419 317.1200  42.9577 14.15003908641250
SL-16 R/B               
1 23343U 94074B   26034.35675731  .00000538  00000+0  78819-4 0  9993
2 23343  97.7152  66.5582 0006077 346.0898  24.7445 14.79365031682177
SL-16 R/B               
1 23405U 94077B   26034.49494262 -.00000149  00000+0 -51607-4 0  9994
2 23405  70.9815  64.4294 0004526 242.1040 117.9624 14.15556643611395
ARIANE 40+ R/B          
1 23561U 95021B   26034.19987042  .00000327  00000+0  11837-3 0  9993
2 23561  98.4567 106.1376 0005814 239.7952 140.8409 14.39745720614286
SL-16 R/B               
1 23705U 95058B   26034.28825203  .00000198  00000+0  12534-3 0  9994
2 23705  71.0190 252.4805 0012618 181.7802 178.3279 14.15488970562982
SL-16 R/B               
1 24298U 96051B   26034.32183034  .00000065  00000+0  61669-4 0  9997
2 24298  70.7567 247.9843 0017925 195.6748 164.3819 14.12405722516798
ORBVIEW 2 (SEASTAR)     
1 24883U 97037A   26034.47265416  .00000312  00000+0  12459-3 0  9990
2 24883  98.8508 197.8895 0002742 142.4056 217.7320 14.35466901503569
